SatCatId,ObjectName,LaunchYear,OrbitalPeriod,LaunchMass,StatusCode,Inclination,Status,UcsData,OrbitClassEstimated,LaunchSiteCountry,Owner,UseType,Purpose,LaunchVehicleClass,TLE1,TLE2,MeanMotion,Eccentricity,OrbitClass
57952,STARLINK-30713,2023,94.82,-1.0,+,53.06,Active,0,LEO,USA,USA,Unknown,Unknown,Falcon,1 57952U 23148T   24022.23461988  .00000174  00000+0  23457-4 0  9993,2 57952  53.0574  29.7494 0002645 104.0156 256.1133 15.18704997 19487,15.18704997,0.0002645,LEO
57953,STARLINK-30700,2023,94.82,-1.0,+,53.05,Active,0,LEO,USA,USA,Unknown,Unknown,Falcon,1 57953U 23148U   24022.23737159 -.00002531  00000+0 -10530-3 0  9998,2 57953  53.0534  20.3545 0002264 100.6317 259.4932 15.18718830 19615,15.1871883,0.0002264,LEO
57954,STARLINK-30703,2023,94.82,-1.0,+,53.05,Active,0,LEO,USA,USA,Unknown,Unknown,Falcon,1 57954U 23148V   24022.36391296  .00004563  00000+0  23210-3 0  9995,2 57954  53.0537  19.7188 0001732 106.6094 253.5091 15.18726512 19540,15.18726512,0.0001732,LEO
57955,STARLINK-30702,2023,94.82,-1.0,+,53.06,Active,0,LEO,USA,USA,Unknown,Unknown,Falcon,1 57955U 23148W   24022.23698099  .00000247  00000+0  26931-4 0  9992,2 57955  53.0563  20.3538 0003063 131.0524 229.0735 15.18714149 19610,15.18714149,0.0003063,LEO
57956,SKYKRAFT-3D,2023,94.91,-1.0,+,97.53,Active,0,LEO,USA,Australia,Unknown,Unknown,Unknown,1 57956U 23084BZ  24022.28022647  .00012708  00000+0  64201-3 0  9993,2 57956  97.5274 141.4273 0011486 157.7264 202.4470 15.17156526 20271,15.17156526,0.0011486,LEO
57958,YAOGAN-33 04,2023,98.66,-1.0,+,98.09,Active,0,LEO,PRC,China,Unknown,Unknown,Unknown,1 57958U 23149A   24022.44571749  .00001377  00000+0  29925-3 0  9991,2 57958  98.0872 337.7567 0000993  61.3123 298.8177 14.59570285 17157,14.59570285,9.93e-05,LEO
57962,NOOR-3,2023,93.03,-1.0,+,60.01,Active,0,LEO,Iran,Iran,Military,Unknown,Qased,1 57962U 23150A   24022.48567685  .00040642  00000+0  76491-3 0  9994,2 57962  60.0107 252.9059 0024004  50.1357 310.1841 15.47966971 18066,15.47966971,0.0024004,LEO
57964,STARLINK-30396,2023,95.04,-1.0,+,43.0,Active,0,LEO,USA,USA,Unknown,Unknown,Falcon,1 57964U 23151A   24022.09210306  .00023650  00000+0  12464-2 0  9998,2 57964  43.0015 248.2028 0001820 266.2830  93.7809 15.15158829 18718,15.15158829,0.000182,LEO
57965,STARLINK-30524,2023,94.99,-1.0,+,43.0,Active,0,LEO,USA,USA,Unknown,Unknown,Falcon,1 57965U 23151B   24022.03949292  .00013922  00000+0  72277-3 0  9996,2 57965  43.0032 247.8241 0001608 270.7739  89.2924 15.15976649 18718,15.15976649,0.0001608,LEO
57966,STARLINK-30521,2023,94.99,-1.0,+,43.0,Active,0,LEO,USA,USA,Unknown,Unknown,Falcon,1 57966U 23151C   24022.10082581  .00031119  00000+0  15968-2 0  9995,2 57966  43.0009 247.4118 0001609 262.1631  97.9033 15.15982525 18727,15.15982525,0.0001609,LEO
57967,STARLINK-30528,2023,94.99,-1.0,+,43.0,Active,0,LEO,USA,USA,Unknown,Unknown,Falcon,1 57967U 23151D   24022.09854614  .00024192  00000+0  12452-2 0  9996,2 57967  43.0012 247.3973 0001772 259.3141 100.7506 15.15982090 18720,15.1598209,0.0001772,LEO
57968,STARLINK-30495,2023,94.99,-1.0,+,43.0,Active,0,LEO,USA,USA,Unknown,Unknown,Falcon,1 57968U 23151E   24022.04176874  .00013290  00000+0  69046-3 0  9996,2 57968  43.0007 247.8256 0001639 264.8314  95.2346 15.15980894 18718,15.15980894,0.0001639,LEO
57969,STARLINK-30484,2023,94.99,-1.0,+,43.0,Active,0,LEO,USA,USA,Unknown,Unknown,Falcon,1 57969U 23151F   24022.03721628  .00014711  00000+0  76289-3 0  9995,2 57969  43.0016 247.7940 0001604 273.4381  86.6283 15.15978783 18718,15.15978783,0.0001604,LEO
57970,STARLINK-30494,2023,94.99,-1.0,+,43.0,Active,0,LEO,USA,USA,Unknown,Unknown,Falcon,1 57970U 23151G   24022.00077991  .00031847  00000+0  16338-2 0  9998,2 57970  43.0013 247.5192 0001604 270.5569  89.5095 15.15981062 18717,15.15981062,0.0001604,LEO
57971,STARLINK-30498,2023,94.99,-1.0,+,43.0,Active,0,LEO,USA,USA,Unknown,Unknown,Falcon,1 57971U 23151H   24021.99851011  .00008850  00000+0  46420-3 0  9993,2 57971  43.0005 247.5013 0001446 255.4207 104.6480 15.15969094 18714,15.15969094,0.0001446,LEO
57972,STARLINK-30505,2023,94.99,-1.0,+,43.0,Active,0,LEO,USA,USA,Unknown,Unknown,Falcon,1 57972U 23151J   24022.07577971  .00015513  00000+0  80369-3 0  9998,2 57972  43.0010 247.2232 0001540 257.6556 102.4119 15.15982318 18727,15.15982318,0.000154,LEO
57973,STARLINK-30502,2023,95.04,-1.0,+,43.0,Active,0,LEO,USA,USA,Unknown,Unknown,Falcon,1 57973U 23151K   24021.98747065  .00011020  00000+0  58824-3 0  9991,2 57973  43.0009 248.2729 0001441 270.4487  89.6194 15.15159259 18701,15.15159259,0.0001441,LEO
57974,STARLINK-30489,2023,94.99,-1.0,+,43.0,Active,0,LEO,USA,USA,Unknown,Unknown,Falcon,1 57974U 23151L   24022.00305164  .00027290  00000+0  14014-2 0  9994,2 57974  43.0008 247.5378 0001607 282.4027  77.6640 15.16010204 18711,15.16010204,0.0001607,LEO
57975,STARLINK-30503,2023,94.99,-1.0,+,43.0,Active,0,LEO,USA,USA,Unknown,Unknown,Falcon,1 57975U 23151M   24022.04112718  .00011814  00000+0  61533-3 0  9994,2 57975  43.0003 246.0944 0001828 266.1743  93.8895 15.15975173 18737,15.15975173,0.0001828,LEO
57976,STARLINK-30512,2023,95.84,-1.0,+,43.0,Active,0,LEO,USA,USA,Unknown,Unknown,Falcon,1 57976U 23151N   24022.06050682  .00013368  00000+0  10027-2 0  9995,2 57976  42.9998 244.5068 0001437 277.4387  82.6292 15.02537571 18755,15.02537571,0.0001437,LEO
57977,STARLINK-30509,2023,95.84,-1.0,+,43.0,Active,0,LEO,USA,USA,Unknown,Unknown,Falcon,1 57977U 23151P   24022.14999471  .00007031  00000+0  53477-3 0  9990,2 57977  43.0018 257.1074 0001529 264.9972  95.0695 15.02553116 18614,15.02553116,0.0001529,LEO
57978,STARLINK-30511,2023,95.84,-1.0,+,43.0,Active,0,LEO,USA,USA,Unknown,Unknown,Falcon,1 57978U 23151Q   24022.07687180  .00008610  00000+0  65157-3 0  9996,2 57978  43.0023 257.4195 0001491 263.6655  96.4017 15.02542621 18601,15.02542621,0.0001491,LEO
57979,STARLINK-30508,2023,95.84,-1.0,+,43.0,Active,0,LEO,USA,USA,Unknown,Unknown,Falcon,1 57979U 23151R   24022.00705795  .00002144  00000+0  17373-3 0  9996,2 57979  43.0029 257.7544 0001333 268.3975  91.6714 15.02539735 18592,15.02539735,0.0001333,LEO
57980,STARLINK-30504,2023,95.78,-1.0,+,43.0,Active,0,LEO,USA,USA,Unknown,Unknown,Falcon,1 57980U 23151S   24022.07674114  .00021704  00000+0  15796-2 0  9994,2 57980  43.0012 257.4189 0001859 260.3508  99.7125 15.03413131 18604,15.03413131,0.0001859,LEO
57981,STARLINK-30510,2023,95.84,-1.0,+,43.0,Active,0,LEO,USA,USA,Unknown,Unknown,Falcon,1 57981U 23151T   24022.13667351  .00014289  00000+0  10700-2 0  9997,2 57981  43.0020 257.0081 0001366 264.0556  96.0130 15.02560991 18611,15.02560991,0.0001366,LEO
57982,STARLINK-30507,2023,95.84,-1.0,+,43.0,Active,0,LEO,USA,USA,Unknown,Unknown,Falcon,1 57982U 23151U   24022.06686761  .00007201  00000+0  54740-3 0  9995,2 57982  43.0014 257.3424 0001459 265.3626  94.7050 15.02549121 18601,15.02549121,0.0001459,LEO
57983,STARLINK-30515,2023,95.84,-1.0,+,43.0,Active,0,LEO,USA,USA,Unknown,Unknown,Falcon,1 57983U 23151V   24022.13001612  .00017264  00000+0  12891-2 0  9990,2 57983  43.0020 256.9580 0001640 259.7940 100.2717 15.02560963 18616,15.02560963,0.000164,LEO
57984,STARLINK-30516,2023,95.84,-1.0,+,43.0,Active,0,LEO,USA,USA,Unknown,Unknown,Falcon,1 57984U 23151W   24022.06020790  .00009373  00000+0  70768-3 0  9991,2 57984  43.0018 257.2930 0001372 264.5854  95.4832 15.02554075 18606,15.02554075,0.0001372,LEO
57985,STARLINK-30519,2023,95.84,-1.0,+,43.0,Active,0,LEO,USA,USA,Unknown,Unknown,Falcon,1 57985U 23151X   24022.05687754  .00002233  00000+0  18029-3 0  9990,2 57985  43.0023 257.2683 0001404 264.2028  95.8654 15.02545746 18548,15.02545746,0.0001404,LEO
57986,YAOGAN-39 03A,2023,94.55,-1.0,+,35.0,Active,0,LEO,PRC,China,Unknown,Unknown,Unknown,1 57986U 23152A   24022.44798479  .00003842  00000+0  16082-3 0  9996,2 57986  34.9965  26.3708 0008386 194.9249 165.1219 15.22997552 16696,15.22997552,0.0008386,LEO
57988,YAOGAN-39 03B,2023,94.55,-1.0,+,35.0,Active,0,LEO,PRC,China,Unknown,Unknown,Unknown,1 57988U 23152C   24022.44718709  .00017883  00000+0  74118-3 0  9990,2 57988  34.9957  26.3577 0004753 206.3763 153.6710 15.23032238 16696,15.23032238,0.0004753,LEO
57990,YAOGAN-39 03C,2023,94.55,-1.0,+,35.0,Active,0,LEO,PRC,China,Unknown,Unknown,Unknown,1 57990U 23152E   24022.44404075  .00023905  00000+0  99018-3 0  9999,2 57990  34.9955  26.3302 0004524 224.4920 135.5431 15.23007799 16665,15.23007799,0.0004524,LEO
57991,STARLINK-30537,2023,94.99,-1.0,+,43.0,Active,0,LEO,USA,USA,Unknown,Unknown,Falcon,1 57991U 23153A   24022.23878589  .00008124  00000+0  42761-3 0  9992,2 57991  43.0036 334.3863 0001365 279.6579  80.4114 15.15930880 17814,15.1593088,0.0001365,LEO
57992,STARLINK-30534,2023,94.99,-1.0,+,43.0,Active,0,LEO,USA,USA,Unknown,Unknown,Falcon,1 57992U 23153B   24022.25016876  .00056481  00000+0  28807-2 0  9991,2 57992  43.0015 334.4640 0001337 249.0392 111.0312 15.15954206 17818,15.15954206,0.0001337,LEO
57993,STARLINK-30536,2023,95.04,-1.0,+,43.0,Active,0,LEO,USA,USA,Unknown,Unknown,Falcon,1 57993U 23153C   24022.28695046  .00044018  00000+0  23009-2 0  9999,2 57993  43.0020 334.7336 0001509 250.4228 109.6456 15.15190551 17913,15.15190551,0.0001509,LEO
57994,STARLINK-30538,2023,94.99,-1.0,+,43.0,Active,0,LEO,USA,USA,Unknown,Unknown,Falcon,1 57994U 23153D   24022.24333297  .00014543  00000+0  75415-3 0  9992,2 57994  43.0016 334.4113 0001533 268.0350  92.0322 15.15987752 17810,15.15987752,0.0001533,LEO
57995,STARLINK-30517,2023,94.99,-1.0,+,43.0,Active,0,LEO,USA,USA,Unknown,Unknown,Falcon,1 57995U 23153E   24022.24105764  .00056464  00000+0  28755-2 0  9991,2 57995  43.0016 334.3956 0001406 241.7534 118.3172 15.16007680 17916,15.1600768,0.0001406,LEO
57996,STARLINK-30543,2023,90.53,-1.0,P,42.97,Active,0,LEO,USA,USA,Unknown,Unknown,Falcon,1 57996U 23153F   24022.58334491  .00420696  74333-4  13169-2 0  9990,2 57996  42.9737 277.0335 0007784 240.1803 123.2678 15.90616061 18587,15.90616061,0.0007784,LEO
